{
  "norad_id": 67594,
  "name": "STARLINK-36638",
  "history": [
    {
      "epoch": "2026-03-28T16:55:13.427328Z",
      "apogee_km": 463.9977600327502,
      "perigee_km": 462.0301082010801,
      "latitude_deg": 4.408144760377097e-05,
      "longitude_deg": 73.64751535468076,
      "height_km": 466.2926991361781,
      "semi_major_axis_km": 6841.150934116915,
      "eccentricity": 0.00014381,
      "inclination_deg": 97.2846,
      "raan_deg": 153.5751,
      "arg_perigee_deg": 99.8211,
      "mean_anomaly_deg": 260.3195,
      "mean_motion_rev_day": 15.34295473
    },
    {
      "epoch": "2026-03-29T03:52:38.435808Z",
      "apogee_km": 464.257974696151,
      "perigee_km": 461.7650601763962,
      "latitude_deg": 8.627622891932551e-06,
      "longitude_deg": -90.70566798670316,
      "height_km": 466.1340029653007,
      "semi_major_axis_km": 6841.148517436273,
      "eccentricity": 0.0001822,
      "inclination_deg": 97.2842,
      "raan_deg": 154.0261,
      "arg_perigee_deg": 90.5627,
      "mean_anomaly_deg": 269.5825,
      "mean_motion_rev_day": 15.34296286
    },
    {
      "epoch": "2026-03-30T01:47:28.202208Z",
      "apogee_km": 464.38135543473163,
      "perigee_km": 461.576361110524,
      "latitude_deg": -2.0593213480189514e-05,
      "longitude_deg": -59.41039253226572,
      "height_km": 465.7798566824216,
      "semi_major_axis_km": 6841.1158582726275,
      "eccentricity": 0.00020501,
      "inclination_deg": 97.2854,
      "raan_deg": 154.9287,
      "arg_perigee_deg": 77.2784,
      "mean_anomaly_deg": 282.8688,
      "mean_motion_rev_day": 15.34307273
    },
    {
      "epoch": "2026-03-30T22:08:22.909632Z",
      "apogee_km": 464.1287551141295,
      "perigee_km": 461.8908791673057,
      "latitude_deg": -6.295626046515124e-05,
      "longitude_deg": -4.638618193733512,
      "height_km": 466.01087629779556,
      "semi_major_axis_km": 6841.146817140717,
      "eccentricity": 0.00016356,
      "inclination_deg": 97.2841,
      "raan_deg": 155.7641,
      "arg_perigee_deg": 84.3837,
      "mean_anomaly_deg": 275.7592,
      "mean_motion_rev_day": 15.34296858
    },
    {
      "epoch": "2026-03-31T04:24:02.836224Z",
      "apogee_km": 464.34204886238604,
      "perigee_km": 461.65621881623974,
      "latitude_deg": 8.69620684502496e-05,
      "longitude_deg": -98.5554315591128,
      "height_km": 465.9876778406226,
      "semi_major_axis_km": 6841.136133839313,
      "eccentricity": 0.0001963,
      "inclination_deg": 97.282,
      "raan_deg": 156.0208,
      "arg_perigee_deg": 84.8093,
      "mean_anomaly_deg": 275.3375,
      "mean_motion_rev_day": 15.34300452
    },
    {
      "epoch": "2026-04-01T13:16:17.313024Z",
      "apogee_km": 463.42455685562436,
      "perigee_km": 462.58583282253585,
      "latitude_deg": -1.6293392819703212e-06,
      "longitude_deg": 128.3854103393821,
      "height_km": 466.2003006372401,
      "semi_major_axis_km": 6841.14219483908,
      "eccentricity": 6.13e-05,
      "inclination_deg": 97.2848,
      "raan_deg": 157.3719,
      "arg_perigee_deg": 101.3938,
      "mean_anomaly_deg": 258.7374,
      "mean_motion_rev_day": 15.34298413
    },
    {
      "epoch": "2026-04-02T03:21:32.562144Z",
      "apogee_km": 464.2930818187042,
      "perigee_km": 461.783465081392,
      "latitude_deg": 7.94210773362475e-05,
      "longitude_deg": -82.9281932186442,
      "height_km": 466.1928416714482,
      "semi_major_axis_km": 6841.175273450048,
      "eccentricity": 0.00018342,
      "inclination_deg": 97.2808,
      "raan_deg": 157.9504,
      "arg_perigee_deg": 92.0215,
      "mean_anomaly_deg": 268.1239,
      "mean_motion_rev_day": 15.34287285
    },
    {
      "epoch": "2026-04-02T22:08:31.301664Z",
      "apogee_km": 463.9383977004936,
      "perigee_km": 461.79853119121435,
      "latitude_deg": 6.070502761168957e-05,
      "longitude_deg": -4.670628008398984,
      "height_km": 465.86875682046286,
      "semi_major_axis_km": 6841.005464445853,
      "eccentricity": 0.0001564,
      "inclination_deg": 97.2848,
      "raan_deg": 158.7241,
      "arg_perigee_deg": 84.0763,
      "mean_anomaly_deg": 276.0659,
      "mean_motion_rev_day": 15.34344412
    },
    {
      "epoch": "2026-04-03T16:55:31.987776Z",
      "apogee_km": 464.44868846752433,
      "perigee_km": 462.007689368118,
      "latitude_deg": -6.894840441563085e-06,
      "longitude_deg": 73.57820986955146,
      "height_km": 466.5294390169645,
      "semi_major_axis_km": 6841.365188917821,
      "eccentricity": 0.0001784,
      "inclination_deg": 97.2823,
      "raan_deg": 159.4972,
      "arg_perigee_deg": 98.9989,
      "mean_anomaly_deg": 261.1456,
      "mean_motion_rev_day": 15.34223398
    },
    {
      "epoch": "2026-04-04T16:24:16.996320Z",
      "apogee_km": 464.22704175585386,
      "perigee_km": 461.725930665295,
      "latitude_deg": 2.569886564821923e-05,
      "longitude_deg": 81.3915142458007,
      "height_km": 466.20290828022553,
      "semi_major_axis_km": 6841.113486210575,
      "eccentricity": 0.0001828,
      "inclination_deg": 97.2839,
      "raan_deg": 160.4623,
      "arg_perigee_deg": 95.3283,
      "mean_anomaly_deg": 264.8169,
      "mean_motion_rev_day": 15.34308071
    },
    {
      "epoch": "2026-04-05T03:21:41.670432Z",
      "apogee_km": 464.158568593637,
      "perigee_km": 461.85693385353534,
      "latitude_deg": 1.9181453783006757e-05,
      "longitude_deg": -82.95957627885299,
      "height_km": 466.1555922543991,
      "semi_major_axis_km": 6841.144751223586,
      "eccentricity": 0.00016822,
      "inclination_deg": 97.2849,
      "raan_deg": 160.914,
      "arg_perigee_deg": 91.8608,
      "mean_anomaly_deg": 268.2828,
      "mean_motion_rev_day": 15.34297553
    },
    {
      "epoch": "2026-04-05T17:26:56.235264Z",
      "apogee_km": 463.8714179413955,
      "perigee_km": 462.1009352632909,
      "latitude_deg": -6.469898800696587e-05,
      "longitude_deg": 65.72949842930622,
      "height_km": 465.62737925825047,
      "semi_major_axis_km": 6841.123176602343,
      "eccentricity": 0.0001294,
      "inclination_deg": 97.2837,
      "raan_deg": 161.4923,
      "arg_perigee_deg": 57.9172,
      "mean_anomaly_deg": 302.2196,
      "mean_motion_rev_day": 15.34304811
    },
    {
      "epoch": "2026-04-06T02:50:25.707840Z",
      "apogee_km": 464.3370885992126,
      "perigee_km": 461.5746552975206,
      "latitude_deg": -5.2681781123905086e-05,
      "longitude_deg": -75.1428023085826,
      "height_km": 465.8130676005337,
      "semi_major_axis_km": 6841.092871948366,
      "eccentricity": 0.0002019,
      "inclination_deg": 97.2837,
      "raan_deg": 161.8785,
      "arg_perigee_deg": 79.4558,
      "mean_anomaly_deg": 280.6912,
      "mean_motion_rev_day": 15.34315006
    },
    {
      "epoch": "2026-04-07T17:58:20.075808Z",
      "apogee_km": 464.0459133462846,
      "perigee_km": 461.9921982983269,
      "latitude_deg": 4.043942427220237e-05,
      "longitude_deg": 57.882163629751545,
      "height_km": 466.3075833204435,
      "semi_major_axis_km": 6841.1560558223055,
      "eccentricity": 0.0001501,
      "inclination_deg": 97.2829,
      "raan_deg": 163.4871,
      "arg_perigee_deg": 99.9614,
      "mean_anomaly_deg": 260.1799,
      "mean_motion_rev_day": 15.3429375
    }
  ]
}